{
  "type": "FeatureCollection",
  "features": [
    {
      "type": "Feature",
      "properties": {
        "norad_id": 29807,
        "name": "FENGYUN 1C DEB",
        "group": "fengyun-1c-debris",
        "lat": 10.477391715527622,
        "lon": -174.790777759328,
        "alt_km": 899.426338753693,
        "timestamp": "2025-12-25T07:41:09.994565+00:00",
        "meta_object_name": "FENGYUN 1C DEB",
        "meta_object_id": "1999-025CZ",
        "meta_epoch": "2025-12-24T13:49:51.546720",
        "meta_mean_motion": 14.08668529,
        "meta_eccentricity": 0.00791003,
        "meta_inclination": 98.7548,
        "meta_ra_of_asc_node": 2.8539,
        "meta_arg_of_pericenter": 298.2229,
        "meta_mean_anomaly": 61.0971,
        "meta_ephemeris_type": 0,
        "meta_classification_type": "U",
        "meta_norad_cat_id": 29807,
        "meta_element_set_no": 999,
        "meta_rev_at_epoch": 97261,
        "meta_bstar": 0.00026073582,
        "meta_mean_motion_dot": 4.18e-06,
        "meta_mean_motion_ddot": 0,
        "tle_line1": "1 29807U 99025CZ  25358.57629105  .00000418  00000+0  26074-3 0  9993",
        "tle_line2": "2 29807  98.7548   2.8539 0079100 298.2229  61.0971 14.08668529972615"
      },
      "geometry": {
        "type": "Point",
        "coordinates": [
          -174.790777759328,
          10.477391715527622
        ]
      }
    },
    {
      "type": "Feature",
      "properties": {
        "norad_id": 29808,
        "name": "FENGYUN 1C DEB",
        "group": "fengyun-1c-debris",
        "lat": 0.5253544055717725,
        "lon": 100.31854687131012,
        "alt_km": 480.2757869623201,
        "timestamp": "2025-12-25T07:41:09.994575+00:00",
        "meta_object_name": "FENGYUN 1C DEB",
        "meta_object_id": "1999-025DA",
        "meta_epoch": "2025-12-24T18:27:42.919200",
        "meta_mean_motion": 15.29862504,
        "meta_eccentricity": 0.001984,
        "meta_inclination": 99.0146,
        "meta_ra_of_asc_node": 279.5674,
        "meta_arg_of_pericenter": 80.4153,
        "meta_mean_anomaly": 305.4142,
        "meta_ephemeris_type": 0,
        "meta_classification_type": "U",
        "meta_norad_cat_id": 29808,
        "meta_element_set_no": 999,
        "meta_rev_at_epoch": 98409,
        "meta_bstar": 0.015234515,
        "meta_mean_motion_dot": 0.00470739,
        "meta_mean_motion_ddot": 0,
        "tle_line1": "1 29808U 99025DA  25358.76924675  .00470739  00000+0  15235-1 0  9997",
        "tle_line2": "2 29808  99.0146 279.5674 0019840  80.4153 305.4142 15.29862504984092"
      },
      "geometry": {
        "type": "Point",
        "coordinates": [
          100.31854687131012,
          0.5253544055717725
        ]
      }
    },
    {
      "type": "Feature",
      "properties": {
        "norad_id": 29809,
        "name": "FENGYUN 1C DEB",
        "group": "fengyun-1c-debris",
        "lat": 68.37354320947696,
        "lon": 166.60985794293939,
        "alt_km": 805.801529529871,
        "timestamp": "2025-12-25T07:41:09.994585+00:00",
        "meta_object_name": "FENGYUN 1C DEB",
        "meta_object_id": "1999-025DB",
        "meta_epoch": "2025-12-24T21:31:01.043040",
        "meta_mean_motion": 14.46624191,
        "meta_eccentricity": 0.01154344,
        "meta_inclination": 98.862,
        "meta_ra_of_asc_node": 322.9927,
        "meta_arg_of_pericenter": 313.4695,
        "meta_mean_anomaly": 110.4171,
        "meta_ephemeris_type": 0,
        "meta_classification_type": "U",
        "meta_norad_cat_id": 29809,
        "meta_element_set_no": 999,
        "meta_rev_at_epoch": 99643,
        "meta_bstar": 0.00035229679,
        "meta_mean_motion_dot": 1.326e-05,
        "meta_mean_motion_ddot": 0,
        "tle_line1": "1 29809U 99025DB  25358.89653985  .00001326  00000+0  35230-3 0  9996",
        "tle_line2": "2 29809  98.8620 322.9927 0115434 313.4695 110.4171 14.46624191996430"
      },
      "geometry": {
        "type": "Point",
        "coordinates": [
          166.60985794293939,
          68.37354320947696
        ]
      }
    },
    {
      "type": "Feature",
      "properties": {
        "norad_id": 29810,
        "name": "FENGYUN 1C DEB",
        "group": "fengyun-1c-debris",
        "lat": 62.13842392511306,
        "lon": 18.977048371686035,
        "alt_km": 780.6636914498386,
        "timestamp": "2025-12-25T07:41:09.994611+00:00",
        "meta_object_name": "FENGYUN 1C DEB",
        "meta_object_id": "1999-025DC",
        "meta_epoch": "2025-12-24T01:25:17.572224",
        "meta_mean_motion": 14.29144993,
        "meta_eccentricity": 0.00664065,
        "meta_inclination": 99.2053,
        "meta_ra_of_asc_node": 35.511,
        "meta_arg_of_pericenter": 346.3419,
        "meta_mean_anomaly": 72.3058,
        "meta_ephemeris_type": 0,
        "meta_classification_type": "U",
        "meta_norad_cat_id": 29810,
        "meta_element_set_no": 999,
        "meta_rev_at_epoch": 98539,
        "meta_bstar": 0.00024608596,
        "meta_mean_motion_dot": 5.9e-06,
        "meta_mean_motion_ddot": 0,
        "tle_line1": "1 29810U 99025DC  25358.05923116  .00000590  00000+0  24609-3 0  9992",
        "tle_line2": "2 29810  99.2053  35.5110 0066406 346.3419  72.3058 14.29144993985392"
      },
      "geometry": {
        "type": "Point",
        "coordinates": [
          18.977048371686035,
          62.13842392511306
        ]
      }
    },
    {
      "type": "Feature",
      "properties": {
        "norad_id": 29812,
        "name": "FENGYUN 1C DEB",
        "group": "fengyun-1c-debris",
        "lat": 27.491124866844572,
        "lon": 11.49703865601976,
        "alt_km": 965.2982987007326,
        "timestamp": "2025-12-25T07:41:09.994625+00:00",
        "meta_object_name": "FENGYUN 1C DEB",
        "meta_object_id": "1999-025DE",
        "meta_epoch": "2025-12-24T12:22:56.695872",
        "meta_mean_motion": 14.02027021,
        "meta_eccentricity": 0.01437428,
        "meta_inclination": 98.3495,
        "meta_ra_of_asc_node": 186.3771,
        "meta_arg_of_pericenter": 294.6465,
        "meta_mean_anomaly": 121.1295,
        "meta_ephemeris_type": 0,
        "meta_classification_type": "U",
        "meta_norad_cat_id": 29812,
        "meta_element_set_no": 999,
        "meta_rev_at_epoch": 96337,
        "meta_bstar": 0.0010815848,
        "meta_mean_motion_dot": 1.766e-05,
        "meta_mean_motion_ddot": 0,
        "tle_line1": "1 29812U 99025DE  25358.51593398  .00001766  00000+0  10816-2 0  9990",
        "tle_line2": "2 29812  98.3495 186.3771 0143742 294.6465 121.1295 14.02027021963370"
      },
      "geometry": {
        "type": "Point",
        "coordinates": [
          11.49703865601976,
          27.491124866844572
        ]
      }
    },
    {
      "type": "Feature",
      "properties": {
        "norad_id": 29813,
        "name": "FENGYUN 1C DEB",
        "group": "fengyun-1c-debris",
        "lat": 58.95219952258781,
        "lon": -146.42700590041267,
        "alt_km": 851.8139322088537,
        "timestamp": "2025-12-25T07:41:09.994637+00:00",
        "meta_object_name": "FENGYUN 1C DEB",
        "meta_object_id": "1999-025DF",
        "meta_epoch": "2025-12-24T20:02:29.152896",
        "meta_mean_motion": 14.09454246,
        "meta_eccentricity": 0.00123691,
        "meta_inclination": 98.7267,
        "meta_ra_of_asc_node": 18.3208,
        "meta_arg_of_pericenter": 186.9878,
        "meta_mean_anomaly": 352.4776,
        "meta_ephemeris_type": 0,
        "meta_classification_type": "U",
        "meta_norad_cat_id": 29813,
        "meta_element_set_no": 999,
        "meta_rev_at_epoch": 97430,
        "meta_bstar": 3.1836147e-05,
        "meta_mean_motion_dot": 1.3e-07,
        "meta_mean_motion_ddot": 0,
        "tle_line1": "1 29813U 99025DF  25358.83505964  .00000013  00000+0  31836-4 0  9999",
        "tle_line2": "2 29813  98.7267  18.3208 0012369 186.9878 352.4776 14.09454246974300"
      },
      "geometry": {
        "type": "Point",
        "coordinates": [
          -146.42700590041267,
          58.95219952258781
        ]
      }
    },
    {
      "type": "Feature",
      "properties": {
        "norad_id": 29815,
        "name": "FENGYUN 1C DEB",
        "group": "fengyun-1c-debris",
        "lat": 29.924777584100067,
        "lon": 2.882621128102741,
        "alt_km": 623.3656396302049,
        "timestamp": "2025-12-25T07:41:09.994647+00:00",
        "meta_object_name": "FENGYUN 1C DEB",
        "meta_object_id": "1999-025DH",
        "meta_epoch": "2025-12-24T00:22:42.328416",
        "meta_mean_motion": 14.63782242,
        "meta_eccentricity": 0.01841375,
        "meta_inclination": 98.0549,
        "meta_ra_of_asc_node": 6.2823,
        "meta_arg_of_pericenter": 99.8617,
        "meta_mean_anomaly": 262.3428,
        "meta_ephemeris_type": 0,
        "meta_classification_type": "U",
        "meta_norad_cat_id": 29815,
        "meta_element_set_no": 999,
        "meta_rev_at_epoch": 16,
        "meta_bstar": 0.00053862719,
        "meta_mean_motion_dot": 3.543e-05,
        "meta_mean_motion_ddot": 0,
        "tle_line1": "1 29815U 99025DH  25358.01576769  .00003543  00000+0  53863-3 0  9996",
        "tle_line2": "2 29815  98.0549   6.2823 0184137  99.8617 262.3428 14.63782242   160"
      },
      "geometry": {
        "type": "Point",
        "coordinates": [
          2.882621128102741,
          29.924777584100067
        ]
      }
    }
  ]
}